satname,norad_id,inclination_deg,eccentricity,mean_motion_rev_per_day,perigee_km,apogee_km,l1,l2
STARLINK-1543,46053,53.1585,0.0001534,15.31710419,469.65832393814253,471.7595498715855,1 46053U 20055AC  26130.51384601  .00002634  00000+0  96589-4 0  9995,2 46053  53.1585 186.5376 0001534  66.2555 293.8607 15.31710419318543
STARLINK-1548,46054,53.1587,0.0001331,15.31724481,469.7554437954923,471.5785954255125,1 46054U 20055AD  26130.46259709  .00006434  00000+0  21876-3 0  9998,2 46054  53.1587 186.8502 0001331  88.0002 272.1152 15.31724481318532
STARLINK-1554,46055,53.158,0.0001571,15.31678489,469.7281504979446,471.88008779758184,1 46055U 20055AE  26130.44395236 -.00004105  00000+0 -12065-3 0  9998,2 46055  53.1580 186.8812 0001571 118.6680 241.4479 15.31678489318535
STARLINK-1564,46058,53.1586,0.0001347,15.30191781,474.31646015231854,476.1627598110481,1 46058U 20055AH  26130.47073772  .00001052  00000+0  47647-4 0  9993,2 46058  53.1586 187.4005 0001347  92.0919 268.0236 15.30191781318525
STARLINK-1570,46059,53.1594,0.0001276,15.3170582,469.84873167257956,471.59656065427953,1 46059U 20055AJ  26130.47188537  .00000949  00000+0  42326-4 0  9993,2 46059  53.1594 186.6348 0001276  89.5293 270.5854 15.31705820318499
STARLINK-1572,46060,53.1595,0.0001203,15.30198432,474.39529237151964,476.04421000585535,1 46060U 20055AK  26130.45173124  .00001231  00000+0  53668-4 0  9995,2 46060  53.1595 187.2380 0001203  99.3469 260.7668 15.30198432318497
STARLINK-1573,46061,53.1572,0.0001271,15.31705254,469.85384309434085,471.5948236452841,1 46061U 20055AL  26130.65365641  .00004309  00000+0  15050-3 0  9996,2 46061  53.1572 185.7554 0001271  86.4593 273.6553 15.31705254318560
STARLINK-1577,46063,53.1594,0.0001151,15.31712101,469.91562142158,471.4922246020569,1 46063U 20055AN  26130.42061066  .00002792  00000+0  10167-3 0  9995,2 46063  53.1594 186.8357 0001151  67.1184 292.9939 15.31712101318525
STARLINK-1583,46064,53.1592,0.0001671,15.30202887,474.0612556808728,476.3516430616528,1 46064U 20055AP  26130.48118222  .00002292  00000+0  89482-4 0  9991,2 46064  53.1592 186.8487 0001671  75.1324 284.9862 15.30202887318520
STARLINK-1536,46070,53.1603,0.0001355,15.31706125,469.79371662134963,471.6497573390716,1 46070U 20055AV  26130.43595691  .00002211  00000+0  82976-4 0  9994,2 46070  53.1603 174.6499 0001355  73.3551 286.7599 15.31706125318699
STARLINK-1542,46073,53.1503,0.0001328,15.29368314,476.7890041068349,478.60991427039517,1 46073U 20055AY  26130.83335647 -.00023595  00000+0 -80760-3 0  9992,2 46073  53.1503 175.7256 0001328  53.8193 225.5415 15.29368314  5477
STARLINK-1549,46074,53.049,0.0003511,15.27397376,481.18683802609394,486.005146933413,1 46074U 20055AZ  26130.42066198  .00018652  00000+0  69728-3 0  9997,2 46074  53.0490 174.4855 0003511  22.2092 337.9058 15.27397376318675
STARLINK-1551,46075,53.1616,0.0001221,15.30202914,474.36957552905733,476.0431619797073,1 46075U 20055BA  26130.39634933  .00003029  00000+0  11434-3 0  9995,2 46075  53.1616 174.4433 0001221  92.3291 267.7849 15.30202914318680
STARLINK-1552,46076,53.1597,0.0001914,15.30958977,471.63853915069376,474.26113519196315,1 46076U 20055BB  26130.54338041  .00198044  00000+0  63712-2 0  9991,2 46076  53.1597 173.6695 0001914 121.4401 238.6787 15.30958977318692
STARLINK-1559,46077,53.0233,0.000297,15.35708721,456.78563313487757,460.84678334057025,1 46077U 20055BC  26130.31059362  .00028769  00000+0  82421-3 0  9998,2 46077  53.0233 145.7158 0002970   8.2340 351.8709 15.35708721319036
STARLINK-1566,46079,53.1591,0.0001228,15.31710099,469.8688523993733,471.55092919575327,1 46079U 20055BE  26130.54806297  .00003059  00000+0  11028-3 0  9992,2 46079  53.1591 173.5000 0001228  89.3096 270.8046 15.31710099318719
STARLINK-1568,46080,53.0587,0.0004655,15.51743859,408.4737382460753,414.79501539789635,1 46080U 20055BF  26130.62406736  .00030107  00000+0  50200-3 0  9996,2 46080  53.0587  96.2615 0004655  12.2281 347.8840 15.51743859319794
STARLINK-1578,46082,53.1601,0.0001498,15.31715338,469.66831890248613,471.72022875212497,1 46082U 20055BH  26130.42195299 -.00000238  00000+0  40871-5 0  9993,2 46082  53.1601 174.6055 0001498  60.6809 299.4342 15.31715338318683
STARLINK-1579,46083,53.1613,0.0001317,15.31730145,469.74815075719744,471.55212128882613,1 46083U 20055BJ  26130.40823522 -.00003961  00000+0 -11582-3 0  9991,2 46083  53.1613 174.2035 0001317  87.3034 272.8118 15.31730145318686
STARLINK-1622,46128,53.0194,0.0003834,15.76528522,337.70926612730364,342.8609522006118,1 46128U 20057M   26130.69453992  .00095742  00000+0  58730-3 0  9996,2 46128  53.0194 277.3688 0003834 336.2894  23.7948 15.76528522317107
STARLINK-1623,46129,53.0455,0.0001124,15.69307041,360.1226460454682,361.6375770921477,1 46129U 20057N   26130.76633132  .00068821  00000+0  57767-3 0  9998,2 46129  53.0455 313.4151 0001124 273.4706  86.6181 15.69307041316614
STARLINK-1624,46130,53.031,0.0009491,15.96838405,276.87450508758957,289.5190488630442,1 46130U 20057P   26130.83335647  .00460519  98514-4  10492-2 0  9993,2 46130  53.0310 280.6469 0009491 288.5358 309.5023 15.96838405  5720
STARLINK-1596,46141,53.0387,0.000326,15.54988078,399.97689965707286,404.39767109113745,1 46141U 20057AA  26130.84658366  .00071445  00000+0  10447-2 0  9996,2 46141  53.0387 292.5247 0003260 288.1527  71.9128 15.54988078316912
STARLINK-1597,46142,53.0454,0.0002286,15.69022728,360.15345225864894,363.2349030730775,1 46142U 20057AB  26130.86515963  .00063975  00000+0  54394-3 0  9993,2 46142  53.0454 352.6130 0002286  67.2058 292.9200 15.69022728316068
STARLINK-1606,46144,53.0398,0.0003779,15.7949636,329.3309187524401,334.40233949533103,1 46144U 20057AD  26130.76082390  .00128120  00000+0  68449-3 0  9997,2 46144  53.0398 308.8294 0003779 237.5526 122.5129 15.79496360304929
STARLINK-1608,46146,53.1588,0.0001334,15.33554081,464.3057417616774,466.131549047871,1 46146U 20057AF  26130.84773443  .00030869  00000+0  94591-3 0  9993,2 46146  53.1588  20.1390 0001334 180.4703 179.6298 15.33554081315705
STARLINK-1667,46155,53.016,0.0005856,15.79141055,328.9431195001007,336.80305451400363,1 46155U 20057AQ  26130.69830447  .00121184  00000+0  65826-3 0  9994,2 46155  53.0160 277.3791 0005856 329.0446  31.0228 15.79141055318349
STARLINK-1545,46156,53.0419,0.0004341,15.75107978,341.4057147289295,347.2421553127151,1 46156U 20057AR  26130.79977867  .00097970  00000+0  63919-3 0  9990,2 46156  53.0419 312.0061 0004341 207.4207 152.6583 15.75107978317880
